LIZZIESAT-1 (LS-1)      
1 59132U 24043AL  26068.89230471  .00005784  00000+0  22329-3 0  9993
2 59132  97.5461 203.4772 0009923 229.9925 130.0443 15.26635711111780
STARLINK-31363          
1 59782U 24093A   26068.70075876 -.00002146  00000+0 -68522-4 0  9992
2 59782  43.0027 205.6275 0001105 210.0856 149.9932 15.27564690102730
